ONEWEB-0387             
1 49313U 21090AL  25038.97783563 -.00000024  00000+0 -89883-4 0  9995
2 49313  87.9266  12.8332 0001728  72.5437 287.5885 13.20769757165894
ONEWEB-0388             
1 49314U 21090AM  25038.93070373  .00000002  00000+0 -26240-4 0  9993
2 49314  87.9152  43.2276 0001711  89.5085 270.6244 13.19724276161223
ONEWEB-0389             
1 50469U 21132A   25039.15798012  .00000809  00000+0  20501-2 0  9991
2 50469  87.9065 104.2989 0001552  93.4003 266.7306 13.17654479154317
ONEWEB-0390             
1 50470U 21132B   25039.15968960  .00000209  00000+0  50418-3 0  9999
2 50470  87.9064 104.3056 0002100  94.4428 265.6943 13.17648743154318
ONEWEB-0391             
1 50471U 21132C   25039.16137207  .00000037  00000+0  63110-4 0  9996
2 50471  87.9072 104.3076 0001571  71.8967 288.2335 13.17649733154314
ONEWEB-0392             
1 50472U 21132D   25038.73611757 -.00000258  00000+0 -69688-3 0  9998
2 50472  87.9061 104.3588 0001555  90.0108 270.1201 13.17649181153007
ONEWEB-0393             
1 50473U 21132E   25038.70926023  .00000005  00000+0 -20836-4 0  9993
2 50473  87.9070 104.3646 0001739  95.7730 264.3600 13.17647143152991
ONEWEB-0394             
1 50474U 21132F   25039.14184667  .00000081  00000+0  17349-3 0  9990
2 50474  87.9049  73.7101 0001767  93.7450 266.3884 13.18684506157751
